{
"type": "FeatureCollection",
"name": "subway_stops",
"crs": { "type": "name", "properties": { "name": "urn:ogc:def:crs:OGC:1.3:CRS84" } },
"features": [
{ "type": "Feature", "properties": { ":id": "row-8q6n~mwtz.gzqs", ":version": "rv-yqgb~iahu-cmrd", ":created_at": "2026-07-23T04:15:36.576Z", ":updated_at": "2026-07-23T04:15:55.744Z", "gtfs_stop_id": "D25", "station_id": "41", "complex_id": "41", "division": "BMT", "line": "Broadway - Brighton", "stop_name": "7 Av", "borough": "Bk", "cbd": "false", "daytime_routes": "B Q", "structure": "Subway", "gtfs_latitude": "40.67705", "gtfs_longitude": "-73.972367", "north_direction_label": "Manhattan", "south_direction_label": "Southbound", "ada": "0", "ada_northbound": "0", "ada_southbound": "0", "ada_notes": null, ":@computed_region_yamh_8v7k": "894", ":@computed_region_wbg7_3whc": "895", ":@computed_region_kjdx_g34t": "2090" }, "geometry": { "type": "Point", "coordinates": [ -73.972367, 40.67705 ] } },
{ "type": "Feature", "properties": { ":id": "row-484s_cffg.jhft", ":version": "rv-7c49~fa33_4sk5", ":created_at": "2026-07-23T04:15:36.576Z", ":updated_at": "2026-07-23T04:15:55.744Z", "gtfs_stop_id": "J27", "station_id": "92", "complex_id": "621", "division": "BMT", "line": "Jamaica", "stop_name": "Broadway Junction", "borough": "Bk", "cbd": "false", "daytime_routes": "J Z", "structure": "Elevated", "gtfs_latitude": "40.679498", "gtfs_longitude": "-73.904512", "north_direction_label": "Outbound", "south_direction_label": "Manhattan", "ada": "0", "ada_northbound": "0", "ada_southbound": "0", "ada_notes": null, ":@computed_region_yamh_8v7k": "894", ":@computed_region_wbg7_3whc": "816", ":@computed_region_kjdx_g34t": "2090" }, "geometry": { "type": "Point", "coordinates": [ -73.904512, 40.679498 ] } },
{ "type": "Feature", "properties": { ":id": "row-v375-4p38_7gac", ":version": "rv-p2v5-7ffe.7eny", ":created_at": "2026-07-23T04:15:36.576Z", ":updated_at": "2026-07-23T04:15:55.744Z", "gtfs_stop_id": "J28", "station_id": "93", "complex_id": "93", "division": "BMT", "line": "Jamaica", "stop_name": "Chauncey St", "borough": "Bk", "cbd": "false", "daytime_routes": "J Z", "structure": "Elevated", "gtfs_latitude": "40.682893", "gtfs_longitude": "-73.910456", "north_direction_label": "Outbound", "south_direction_label": "Manhattan", "ada": "0", "ada_northbound": "0", "ada_southbound": "0", "ada_notes": null, ":@computed_region_yamh_8v7k": "894", ":@computed_region_wbg7_3whc": "885", ":@computed_region_kjdx_g34t": "2090" }, "geometry": { "type": "Point", "coordinates": [ -73.910456, 40.682893 ] } },
{ "type": "Feature", "properties": { ":id": "row-h75k-rhtg_x4v9", ":version": "rv-gxst-4mkb.ikpc", ":created_at": "2026-07-23T04:15:36.576Z", ":updated_at": "2026-07-23T04:15:55.744Z", "gtfs_stop_id": "J29", "station_id": "94", "complex_id": "94", "division": "BMT", "line": "Jamaica", "stop_name": "Halsey St", "borough": "Bk", "cbd": "false", "daytime_routes": "J", "structure": "Elevated", "gtfs_latitude": "40.68637", "gtfs_longitude": "-73.916559", "north_direction_label": "Outbound", "south_direction_label": "Manhattan", "ada": "0", "ada_northbound": "0", "ada_southbound": "0", "ada_notes": null, ":@computed_region_yamh_8v7k": "894", ":@computed_region_wbg7_3whc": "900", ":@computed_region_kjdx_g34t": "2090" }, "geometry": { "type": "Point", "coordinates": [ -73.916559, 40.68637 ] } },
{ "type": "Feature", "properties": { ":id": "row-mu5h.q443_dn3x", ":version": "rv-h2sh~3zay~8jyy", ":created_at": "2026-07-23T04:15:36.576Z", ":updated_at": "2026-07-23T04:15:55.744Z", "gtfs_stop_id": "J30", "station_id": "95", "complex_id": "95", "division": "BMT", "line": "Jamaica", "stop_name": "Gates Av", "borough": "Bk", "cbd": "false", "daytime_routes": "J Z", "structure": "Elevated", "gtfs_latitude": "40.68963", "gtfs_longitude": "-73.92227", "north_direction_label": "Outbound", "south_direction_label": "Manhattan", "ada": "0", "ada_northbound": "0", "ada_southbound": "0", "ada_notes": null, ":@computed_region_yamh_8v7k": "894", ":@computed_region_wbg7_3whc": "900", ":@computed_region_kjdx_g34t": "2090" }, "geometry": { "type": "Point", "coordinates": [ -73.92227, 40.68963 ] } },
{ "type": "Feature", "properties": { ":id": "row-tdtt_ahqk.wwu5", ":version": "rv-c3y9_dkrf_nzy3", ":created_at": "2026-07-23T04:15:36.576Z", ":updated_at": "2026-07-23T04:15:55.744Z", "gtfs_stop_id": "J31", "station_id": "96", "complex_id": "96", "division": "BMT", "line": "Jamaica", "stop_name": "Kosciuszko St", "borough": "Bk", "cbd": "false", "daytime_routes": "J", "structure": "Elevated", "gtfs_latitude": "40.693342", "gtfs_longitude": "-73.928814", "north_direction_label": "Outbound", "south_direction_label": "Manhattan", "ada": "0", "ada_northbound": "0", "ada_southbound": "0", "ada_notes": null, ":@computed_region_yamh_8v7k": "894", ":@computed_region_wbg7_3whc": "900", ":@computed_region_kjdx_g34t": "2090" }, "geometry": { "type": "Point", "coordinates": [ -73.928814, 40.693342 ] } },
{ "type": "Feature", "properties": { ":id": "row-5esq-xguq-wqwc", ":version": "rv-tmkq.3qbe~6967", ":created_at": "2026-07-23T04:15:36.576Z", ":updated_at": "2026-07-23T04:15:55.744Z", "gtfs_stop_id": "M11", "station_id": "97", "complex_id": "97", "division": "BMT", "line": "Jamaica", "stop_name": "Myrtle Av", "borough": "Bk", "cbd": "false", "daytime_routes": "M J Z", "structure": "Elevated", "gtfs_latitude": "40.697207", "gtfs_longitude": "-73.935657", "north_direction_label": "Outbound", "south_direction_label": "Manhattan", "ada": "0", "ada_northbound": "0", "ada_southbound": "0", "ada_notes": null, ":@computed_region_yamh_8v7k": "894", ":@computed_region_wbg7_3whc": "884", ":@computed_region_kjdx_g34t": "2090" }, "geometry": { "type": "Point", "coordinates": [ -73.935657, 40.697207 ] } },
{ "type": "Feature", "properties": { ":id": "row-sja6~mcc6-bt8d", ":version": "rv-e8i3~bz5b.hiky", ":created_at": "2026-07-23T04:15:36.576Z", ":updated_at": "2026-07-23T04:15:55.744Z", "gtfs_stop_id": "M12", "station_id": "98", "complex_id": "98", "division": "BMT", "line": "Jamaica", "stop_name": "Flushing Av", "borough": "Bk", "cbd": "false", "daytime_routes": "M J", "structure": "Elevated", "gtfs_latitude": "40.70026", "gtfs_longitude": "-73.941126", "north_direction_label": "Outbound", "south_direction_label": "Manhattan", "ada": "1", "ada_northbound": "1", "ada_southbound": "1", "ada_notes": null, ":@computed_region_yamh_8v7k": "894", ":@computed_region_wbg7_3whc": "884", ":@computed_region_kjdx_g34t": "2090" }, "geometry": { "type": "Point", "coordinates": [ -73.941126, 40.70026 ] } },
{ "type": "Feature", "properties": { ":id": "row-8zd5.gcca-ryry", ":version": "rv-gti2~uxr6_f5v3", ":created_at": "2026-07-23T04:15:36.576Z", ":updated_at": "2026-07-23T04:15:55.744Z", "gtfs_stop_id": "M13", "station_id": "99", "complex_id": "99", "division": "BMT", "line": "Jamaica", "stop_name": "Lorimer St", "borough": "Bk", "cbd": "false", "daytime_routes": "M J", "structure": "Elevated", "gtfs_latitude": "40.703869", "gtfs_longitude": "-73.947408", "north_direction_label": "Outbound", "south_direction_label": "Manhattan", "ada": "0", "ada_northbound": "0", "ada_southbound": "0", "ada_notes": null, ":@computed_region_yamh_8v7k": "894", ":@computed_region_wbg7_3whc": "884", ":@computed_region_kjdx_g34t": "2090" }, "geometry": { "type": "Point", "coordinates": [ -73.947408, 40.703869 ] } },
{ "type": "Feature", "properties": { ":id": "row-wt4q~nrta~f7pa", ":version": "rv-j9uc~7nbj.eztj", ":created_at": "2026-07-23T04:15:36.576Z", ":updated_at": "2026-07-23T04:15:55.744Z", "gtfs_stop_id": "M14", "station_id": "100", "complex_id": "100", "division": "BMT", "line": "Jamaica", "stop_name": "Hewes St", "borough": "Bk", "cbd": "false", "daytime_routes": "M J", "structure": "Elevated", "gtfs_latitude": "40.70687", "gtfs_longitude": "-73.953431", "north_direction_label": "Outbound", "south_direction_label": "Manhattan", "ada": "0", "ada_northbound": "0", "ada_southbound": "0", "ada_notes": null, ":@computed_region_yamh_8v7k": "894", ":@computed_region_wbg7_3whc": "889", ":@computed_region_kjdx_g34t": "2090" }, "geometry": { "type": "Point", "coordinates": [ -73.953431, 40.70687 ] } },
{ "type": "Feature", "properties": { ":id": "row-hyjz.65a9.h8vh", ":version": "rv-qatc-ysvc-xgjy", ":created_at": "2026-07-23T04:15:36.576Z", ":updated_at": "2026-07-23T04:15:55.744Z", "gtfs_stop_id": "M16", "station_id": "101", "complex_id": "101", "division": "BMT", "line": "Jamaica", "stop_name": "Marcy Av", "borough": "Bk", "cbd": "false", "daytime_routes": "M J Z", "structure": "Elevated", "gtfs_latitude": "40.708359", "gtfs_longitude": "-73.957757", "north_direction_label": "Outbound", "south_direction_label": "Manhattan", "ada": "1", "ada_northbound": "1", "ada_southbound": "1", "ada_notes": null, ":@computed_region_yamh_8v7k": "894", ":@computed_region_wbg7_3whc": "889", ":@computed_region_kjdx_g34t": "2090" }, "geometry": { "type": "Point", "coordinates": [ -73.957757, 40.708359 ] } },
{ "type": "Feature", "properties": { ":id": "row-sgjx-pi7a~5h22", ":version": "rv-97f8_gxtb.jphq", ":created_at": "2026-07-23T04:15:36.576Z", ":updated_at": "2026-07-23T04:15:55.744Z", "gtfs_stop_id": "M09", "station_id": "113", "complex_id": "113", "division": "BMT", "line": "Myrtle Av", "stop_name": "Knickerbocker Av", "borough": "Bk", "cbd": "false", "daytime_routes": "M", "structure": "Elevated", "gtfs_latitude": "40.698664", "gtfs_longitude": "-73.919711", "north_direction_label": "Inbound", "south_direction_label": "Middle Village", "ada": "0", "ada_northbound": "0", "ada_southbound": "0", "ada_notes": null, ":@computed_region_yamh_8v7k": "894", ":@computed_region_wbg7_3whc": "820", ":@computed_region_kjdx_g34t": "2090" }, "geometry": { "type": "Point", "coordinates": [ -73.919711, 40.698664 ] } },
{ "type": "Feature", "properties": { ":id": "row-ud8n-6e58~m2gx", ":version": "rv-bpyd_5y3q_hmmf", ":created_at": "2026-07-23T04:15:36.576Z", ":updated_at": "2026-07-23T04:15:55.744Z", "gtfs_stop_id": "M10", "station_id": "114", "complex_id": "114", "division": "BMT", "line": "Myrtle Av", "stop_name": "Central Av", "borough": "Bk", "cbd": "false", "daytime_routes": "M", "structure": "Elevated", "gtfs_latitude": "40.697857", "gtfs_longitude": "-73.927397", "north_direction_label": "Inbound", "south_direction_label": "Middle Village", "ada": "0", "ada_northbound": "0", "ada_southbound": "0", "ada_notes": null, ":@computed_region_yamh_8v7k": "894", ":@computed_region_wbg7_3whc": "900", ":@computed_region_kjdx_g34t": "2090" }, "geometry": { "type": "Point", "coordinates": [ -73.927397, 40.697857 ] } },
{ "type": "Feature", "properties": { ":id": "row-h34m.ttes-pkp4", ":version": "rv-7cqq.t66a.3g86", ":created_at": "2026-07-23T04:15:36.576Z", ":updated_at": "2026-07-23T04:15:55.744Z", "gtfs_stop_id": "L13", "station_id": "124", "complex_id": "124", "division": "BMT", "line": "Canarsie", "stop_name": "Montrose Av", "borough": "Bk", "cbd": "false", "daytime_routes": "L", "structure": "Subway", "gtfs_latitude": "40.707739", "gtfs_longitude": "-73.93985", "north_direction_label": "Manhattan", "south_direction_label": "Outbound", "ada": "0", "ada_northbound": "0", "ada_southbound": "0", "ada_notes": null, ":@computed_region_yamh_8v7k": "894", ":@computed_region_wbg7_3whc": "884", ":@computed_region_kjdx_g34t": "2090" }, "geometry": { "type": "Point", "coordinates": [ -73.93985, 40.707739 ] } },
{ "type": "Feature", "properties": { ":id": "row-pgm4~nzbm-ef4e", ":version": "rv-b2tb_7jy4-7z6t", ":created_at": "2026-07-23T04:15:36.576Z", ":updated_at": "2026-07-23T04:15:55.744Z", "gtfs_stop_id": "L14", "station_id": "125", "complex_id": "125", "division": "BMT", "line": "Canarsie", "stop_name": "Morgan Av", "borough": "Bk", "cbd": "false", "daytime_routes": "L", "structure": "Subway", "gtfs_latitude": "40.706152", "gtfs_longitude": "-73.933147", "north_direction_label": "Manhattan", "south_direction_label": "Outbound", "ada": "0", "ada_northbound": "0", "ada_southbound": "0", "ada_notes": null, ":@computed_region_yamh_8v7k": "894", ":@computed_region_wbg7_3whc": "884", ":@computed_region_kjdx_g34t": "2090" }, "geometry": { "type": "Point", "coordinates": [ -73.933147, 40.706152 ] } },
{ "type": "Feature", "properties": { ":id": "row-dumc_4rhj~7e5c", ":version": "rv-e78k-nu2m.56ek", ":created_at": "2026-07-23T04:15:36.576Z", ":updated_at": "2026-07-23T04:15:55.744Z", "gtfs_stop_id": "L20", "station_id": "130", "complex_id": "130", "division": "BMT", "line": "Canarsie", "stop_name": "Wilson Av", "borough": "Bk", "cbd": "false", "daytime_routes": "L", "structure": "Subway", "gtfs_latitude": "40.688764", "gtfs_longitude": "-73.904046", "north_direction_label": "Manhattan", "south_direction_label": "Outbound", "ada": "2", "ada_northbound": "1", "ada_southbound": "0", "ada_notes": "Manhattan-bound only", ":@computed_region_yamh_8v7k": "894", ":@computed_region_wbg7_3whc": "885", ":@computed_region_kjdx_g34t": "2090" }, "geometry": { "type": "Point", "coordinates": [ -73.904046, 40.688764 ] } },
{ "type": "Feature", "properties": { ":id": "row-thd3-dxac-v9g3", ":version": "rv-hptq~hh34-8veq", ":created_at": "2026-07-23T04:15:36.576Z", ":updated_at": "2026-07-23T04:15:55.744Z", "gtfs_stop_id": "L21", "station_id": "131", "complex_id": "131", "division": "BMT", "line": "Canarsie", "stop_name": "Bushwick Av-Aberdeen St", "borough": "Bk", "cbd": "false", "daytime_routes": "L", "structure": "Subway", "gtfs_latitude": "40.682829", "gtfs_longitude": "-73.905249", "north_direction_label": "Manhattan", "south_direction_label": "Outbound", "ada": "0", "ada_northbound": "0", "ada_southbound": "0", "ada_notes": null, ":@computed_region_yamh_8v7k": "894", ":@computed_region_wbg7_3whc": "885", ":@computed_region_kjdx_g34t": "2090" }, "geometry": { "type": "Point", "coordinates": [ -73.905249, 40.682829 ] } },
{ "type": "Feature", "properties": { ":id": "row-98uq.dgra-v6tp", ":version": "rv-2abk.iepr_8d7s", ":created_at": "2026-07-23T04:15:36.576Z", ":updated_at": "2026-07-23T04:15:55.744Z", "gtfs_stop_id": "L22", "station_id": "132", "complex_id": "621", "division": "BMT", "line": "Canarsie", "stop_name": "Broadway Junction", "borough": "Bk", "cbd": "false", "daytime_routes": "L", "structure": "Elevated", "gtfs_latitude": "40.678856", "gtfs_longitude": "-73.90324", "north_direction_label": "Manhattan", "south_direction_label": "Outbound", "ada": "0", "ada_northbound": "0", "ada_southbound": "0", "ada_notes": null, ":@computed_region_yamh_8v7k": "894", ":@computed_region_wbg7_3whc": "885", ":@computed_region_kjdx_g34t": "2090" }, "geometry": { "type": "Point", "coordinates": [ -73.90324, 40.678856 ] } },
{ "type": "Feature", "properties": { ":id": "row-ddpk.g8vj-vjxf", ":version": "rv-35hj.fuqe~nhp5", ":created_at": "2026-07-23T04:15:36.576Z", ":updated_at": "2026-07-23T04:15:55.744Z", "gtfs_stop_id": "L24", "station_id": "133", "complex_id": "133", "division": "BMT", "line": "Canarsie", "stop_name": "Atlantic Av", "borough": "Bk", "cbd": "false", "daytime_routes": "L", "structure": "Elevated", "gtfs_latitude": "40.675345", "gtfs_longitude": "-73.903097", "north_direction_label": "Manhattan", "south_direction_label": "Canarsie", "ada": "0", "ada_northbound": "0", "ada_southbound": "0", "ada_notes": null, ":@computed_region_yamh_8v7k": "894", ":@computed_region_wbg7_3whc": "885", ":@computed_region_kjdx_g34t": "2090" }, "geometry": { "type": "Point", "coordinates": [ -73.903097, 40.675345 ] } },
{ "type": "Feature", "properties": { ":id": "row-8u4y-cy8e~t8fe", ":version": "rv-apnc-iru5-rbpp", ":created_at": "2026-07-23T04:15:36.576Z", ":updated_at": "2026-07-23T04:15:55.744Z", "gtfs_stop_id": "S01", "station_id": "139", "complex_id": "627", "division": "BMT", "line": "Franklin Shuttle", "stop_name": "Franklin Av", "borough": "Bk", "cbd": "false", "daytime_routes": "S", "structure": "Elevated", "gtfs_latitude": "40.680596", "gtfs_longitude": "-73.955827", "north_direction_label": "Last Stop", "south_direction_label": "Prospect Park", "ada": "1", "ada_northbound": "1", "ada_southbound": "1", "ada_notes": null, ":@computed_region_yamh_8v7k": "894", ":@computed_region_wbg7_3whc": "821", ":@computed_region_kjdx_g34t": "2090" }, "geometry": { "type": "Point", "coordinates": [ -73.955827, 40.680596 ] } },
{ "type": "Feature", "properties": { ":id": "row-7uhz_y3pm_6dth", ":version": "rv-qtes~xdd6.sxxw", ":created_at": "2026-07-23T04:15:36.576Z", ":updated_at": "2026-07-23T04:15:55.744Z", "gtfs_stop_id": "S03", "station_id": "141", "complex_id": "141", "division": "BMT", "line": "Franklin Shuttle", "stop_name": "Park Pl", "borough": "Bk", "cbd": "false", "daytime_routes": "S", "structure": "Open Cut", "gtfs_latitude": "40.674772", "gtfs_longitude": "-73.957624", "north_direction_label": "Franklin Av", "south_direction_label": "Prospect Park", "ada": "1", "ada_northbound": "1", "ada_southbound": "1", "ada_notes": null, ":@computed_region_yamh_8v7k": "894", ":@computed_region_wbg7_3whc": "821", ":@computed_region_kjdx_g34t": "2090" }, "geometry": { "type": "Point", "coordinates": [ -73.957624, 40.674772 ] } },
{ "type": "Feature", "properties": { ":id": "row-u34z_2zi6_av9j", ":version": "rv-wmft.f7e4-gb79", ":created_at": "2026-07-23T04:15:36.576Z", ":updated_at": "2026-07-23T04:15:55.744Z", "gtfs_stop_id": "S04", "station_id": "142", "complex_id": "626", "division": "BMT", "line": "Franklin Shuttle", "stop_name": "Botanic Garden", "borough": "Bk", "cbd": "false", "daytime_routes": "S", "structure": "Open Cut", "gtfs_latitude": "40.670343", "gtfs_longitude": "-73.959245", "north_direction_label": "Franklin Av", "south_direction_label": "Prospect Park", "ada": "0", "ada_northbound": "0", "ada_southbound": "0", "ada_notes": null, ":@computed_region_yamh_8v7k": "894", ":@computed_region_wbg7_3whc": "809", ":@computed_region_kjdx_g34t": "2090" }, "geometry": { "type": "Point", "coordinates": [ -73.959245, 40.670343 ] } },
{ "type": "Feature", "properties": { ":id": "row-wznj-wntj~22r2", ":version": "rv-sr6x_zvrw-dgci", ":created_at": "2026-07-23T04:15:36.576Z", ":updated_at": "2026-07-23T04:15:55.744Z", "gtfs_stop_id": "A43", "station_id": "176", "complex_id": "176", "division": "IND", "line": "8th Av - Fulton St", "stop_name": "Lafayette Av", "borough": "Bk", "cbd": "false", "daytime_routes": "C", "structure": "Subway", "gtfs_latitude": "40.686113", "gtfs_longitude": "-73.973946", "north_direction_label": "Manhattan", "south_direction_label": "Outbound", "ada": "0", "ada_northbound": "0", "ada_southbound": "0", "ada_notes": null, ":@computed_region_yamh_8v7k": "894", ":@computed_region_wbg7_3whc": "895", ":@computed_region_kjdx_g34t": "2090" }, "geometry": { "type": "Point", "coordinates": [ -73.973946, 40.686113 ] } },
{ "type": "Feature", "properties": { ":id": "row-d587_896q-insk", ":version": "rv-kc7r.aq97-zys3", ":created_at": "2026-07-23T04:15:36.576Z", ":updated_at": "2026-07-23T04:15:55.744Z", "gtfs_stop_id": "A44", "station_id": "177", "complex_id": "177", "division": "IND", "line": "8th Av - Fulton St", "stop_name": "Clinton-Washington Avs", "borough": "Bk", "cbd": "false", "daytime_routes": "C", "structure": "Subway", "gtfs_latitude": "40.683263", "gtfs_longitude": "-73.965838", "north_direction_label": "Manhattan", "south_direction_label": "Outbound", "ada": "0", "ada_northbound": "0", "ada_southbound": "0", "ada_notes": null, ":@computed_region_yamh_8v7k": "894", ":@computed_region_wbg7_3whc": "821", ":@computed_region_kjdx_g34t": "2090" }, "geometry": { "type": "Point", "coordinates": [ -73.965838, 40.683263 ] } },
{ "type": "Feature", "properties": { ":id": "row-y87m_8k8p-4bj2", ":version": "rv-qg9b~fj69~zgeh", ":created_at": "2026-07-23T04:15:36.576Z", ":updated_at": "2026-07-23T04:15:55.744Z", "gtfs_stop_id": "A45", "station_id": "178", "complex_id": "627", "division": "IND", "line": "8th Av - Fulton St", "stop_name": "Franklin Av", "borough": "Bk", "cbd": "false", "daytime_routes": "C", "structure": "Subway", "gtfs_latitude": "40.68138", "gtfs_longitude": "-73.956848", "north_direction_label": "Manhattan", "south_direction_label": "Outbound", "ada": "1", "ada_northbound": "1", "ada_southbound": "1", "ada_notes": null, ":@computed_region_yamh_8v7k": "894", ":@computed_region_wbg7_3whc": "821", ":@computed_region_kjdx_g34t": "2090" }, "geometry": { "type": "Point", "coordinates": [ -73.956848, 40.68138 ] } },
{ "type": "Feature", "properties": { ":id": "row-hnhd_ddu8_ci7i", ":version": "rv-y2x9-trx2~bvn9", ":created_at": "2026-07-23T04:15:36.576Z", ":updated_at": "2026-07-23T04:15:55.744Z", "gtfs_stop_id": "A46", "station_id": "179", "complex_id": "179", "division": "IND", "line": "8th Av - Fulton St", "stop_name": "Nostrand Av", "borough": "Bk", "cbd": "false", "daytime_routes": "A C", "structure": "Subway", "gtfs_latitude": "40.680438", "gtfs_longitude": "-73.950426", "north_direction_label": "Manhattan", "south_direction_label": "Outbound", "ada": "0", "ada_northbound": "0", "ada_southbound": "0", "ada_notes": null, ":@computed_region_yamh_8v7k": "894", ":@computed_region_wbg7_3whc": "894", ":@computed_region_kjdx_g34t": "2090" }, "geometry": { "type": "Point", "coordinates": [ -73.950426, 40.680438 ] } },
{ "type": "Feature", "properties": { ":id": "row-ejw2.sfep~jgpg", ":version": "rv-qw87.t5dg-qr3u", ":created_at": "2026-07-23T04:15:36.576Z", ":updated_at": "2026-07-23T04:15:55.744Z", "gtfs_stop_id": "A47", "station_id": "180", "complex_id": "180", "division": "IND", "line": "8th Av - Fulton St", "stop_name": "Kingston-Throop Avs", "borough": "Bk", "cbd": "false", "daytime_routes": "C", "structure": "Subway", "gtfs_latitude": "40.679921", "gtfs_longitude": "-73.940858", "north_direction_label": "Manhattan", "south_direction_label": "Outbound", "ada": "0", "ada_northbound": "0", "ada_southbound": "0", "ada_notes": null, ":@computed_region_yamh_8v7k": "894", ":@computed_region_wbg7_3whc": "891", ":@computed_region_kjdx_g34t": "2090" }, "geometry": { "type": "Point", "coordinates": [ -73.940858, 40.679921 ] } },
{ "type": "Feature", "properties": { ":id": "row-63ph-z4v7-drcq", ":version": "rv-8vpt~4b3x_2dfm", ":created_at": "2026-07-23T04:15:36.576Z", ":updated_at": "2026-07-23T04:15:55.744Z", "gtfs_stop_id": "A48", "station_id": "181", "complex_id": "181", "division": "IND", "line": "8th Av - Fulton St", "stop_name": "Utica Av", "borough": "Bk", "cbd": "false", "daytime_routes": "A C", "structure": "Subway", "gtfs_latitude": "40.679364", "gtfs_longitude": "-73.930729", "north_direction_label": "Manhattan", "south_direction_label": "Outbound", "ada": "1", "ada_northbound": "1", "ada_southbound": "1", "ada_notes": null, ":@computed_region_yamh_8v7k": "894", ":@computed_region_wbg7_3whc": "891", ":@computed_region_kjdx_g34t": "2090" }, "geometry": { "type": "Point", "coordinates": [ -73.930729, 40.679364 ] } },
{ "type": "Feature", "properties": { ":id": "row-rxf8~kfme~dihq", ":version": "rv-erxw~62a2~aj7u", ":created_at": "2026-07-23T04:15:36.576Z", ":updated_at": "2026-07-23T04:15:55.744Z", "gtfs_stop_id": "A49", "station_id": "182", "complex_id": "182", "division": "IND", "line": "8th Av - Fulton St", "stop_name": "Ralph Av", "borough": "Bk", "cbd": "false", "daytime_routes": "C", "structure": "Subway", "gtfs_latitude": "40.678822", "gtfs_longitude": "-73.920786", "north_direction_label": "Manhattan", "south_direction_label": "Outbound", "ada": "0", "ada_northbound": "0", "ada_southbound": "0", "ada_notes": null, ":@computed_region_yamh_8v7k": "894", ":@computed_region_wbg7_3whc": "816", ":@computed_region_kjdx_g34t": "2090" }, "geometry": { "type": "Point", "coordinates": [ -73.920786, 40.678822 ] } },
{ "type": "Feature", "properties": { ":id": "row-564u_ak3d~t3gj", ":version": "rv-b9rz~fzah_4uk6", ":created_at": "2026-07-23T04:15:36.576Z", ":updated_at": "2026-07-23T04:15:55.744Z", "gtfs_stop_id": "A50", "station_id": "183", "complex_id": "183", "division": "IND", "line": "8th Av - Fulton St", "stop_name": "Rockaway Av", "borough": "Bk", "cbd": "false", "daytime_routes": "C", "structure": "Subway", "gtfs_latitude": "40.67834", "gtfs_longitude": "-73.911946", "north_direction_label": "Manhattan", "south_direction_label": "Outbound", "ada": "0", "ada_northbound": "0", "ada_southbound": "0", "ada_notes": null, ":@computed_region_yamh_8v7k": "894", ":@computed_region_wbg7_3whc": "816", ":@computed_region_kjdx_g34t": "2090" }, "geometry": { "type": "Point", "coordinates": [ -73.911946, 40.67834 ] } },
{ "type": "Feature", "properties": { ":id": "row-m2rs_kiqx.h3ct", ":version": "rv-wmcb-b6bn-dyfu", ":created_at": "2026-07-23T04:15:36.576Z", ":updated_at": "2026-07-23T04:15:55.744Z", "gtfs_stop_id": "A51", "station_id": "184", "complex_id": "621", "division": "IND", "line": "8th Av - Fulton St", "stop_name": "Broadway Junction", "borough": "Bk", "cbd": "false", "daytime_routes": "A C", "structure": "Subway", "gtfs_latitude": "40.678334", "gtfs_longitude": "-73.905316", "north_direction_label": "Manhattan", "south_direction_label": "Outbound", "ada": "0", "ada_northbound": "0", "ada_southbound": "0", "ada_notes": null, ":@computed_region_yamh_8v7k": "894", ":@computed_region_wbg7_3whc": "816", ":@computed_region_kjdx_g34t": "2090" }, "geometry": { "type": "Point", "coordinates": [ -73.905316, 40.678334 ] } },
{ "type": "Feature", "properties": { ":id": "row-znb4~dwsq~48y2", ":version": "rv-5q76-fkzh~sr7h", ":created_at": "2026-07-23T04:15:36.576Z", ":updated_at": "2026-07-23T04:15:55.744Z", "gtfs_stop_id": "G13", "station_id": "266", "complex_id": "266", "division": "IND", "line": "Queens Blvd", "stop_name": "Elmhurst Av", "borough": "Q", "cbd": "false", "daytime_routes": "M R", "structure": "Subway", "gtfs_latitude": "40.742454", "gtfs_longitude": "-73.882017", "north_direction_label": "Outbound", "south_direction_label": "Manhattan", "ada": "0", "ada_northbound": "0", "ada_southbound": "0", "ada_notes": null, ":@computed_region_yamh_8v7k": "196", ":@computed_region_wbg7_3whc": "843", ":@computed_region_kjdx_g34t": "2137" }, "geometry": { "type": "Point", "coordinates": [ -73.882017, 40.742454 ] } },
{ "type": "Feature", "properties": { ":id": "row-t79c~q26q_vg3b", ":version": "rv-rcqm~6avj-6n74", ":created_at": "2026-07-23T04:15:36.576Z", ":updated_at": "2026-07-23T04:15:55.744Z", "gtfs_stop_id": "G14", "station_id": "267", "complex_id": "616", "division": "IND", "line": "Queens Blvd", "stop_name": "Jackson Hts-Roosevelt Av", "borough": "Q", "cbd": "false", "daytime_routes": "E F M R", "structure": "Subway", "gtfs_latitude": "40.746644", "gtfs_longitude": "-73.891338", "north_direction_label": "Outbound", "south_direction_label": "Manhattan", "ada": "1", "ada_northbound": "1", "ada_southbound": "1", "ada_notes": null, ":@computed_region_yamh_8v7k": "196", ":@computed_region_wbg7_3whc": "843", ":@computed_region_kjdx_g34t": "2137" }, "geometry": { "type": "Point", "coordinates": [ -73.891338, 40.746644 ] } },
{ "type": "Feature", "properties": { ":id": "row-hfez-a76y~a7qs", ":version": "rv-msym.yqm7-p4e2", ":created_at": "2026-07-23T04:15:36.576Z", ":updated_at": "2026-07-23T04:15:55.744Z", "gtfs_stop_id": "G15", "station_id": "268", "complex_id": "268", "division": "IND", "line": "Queens Blvd", "stop_name": "65 St", "borough": "Q", "cbd": "false", "daytime_routes": "M R", "structure": "Subway", "gtfs_latitude": "40.749669", "gtfs_longitude": "-73.898453", "north_direction_label": "Outbound", "south_direction_label": "Manhattan", "ada": "0", "ada_northbound": "0", "ada_southbound": "0", "ada_notes": null, ":@computed_region_yamh_8v7k": "196", ":@computed_region_wbg7_3whc": "846", ":@computed_region_kjdx_g34t": "2137" }, "geometry": { "type": "Point", "coordinates": [ -73.898453, 40.749669 ] } },
{ "type": "Feature", "properties": { ":id": "row-j7d3-cf8s_f8gh", ":version": "rv-94zq.5tj7-48ih", ":created_at": "2026-07-23T04:15:36.576Z", ":updated_at": "2026-07-23T04:15:55.744Z", "gtfs_stop_id": "G16", "station_id": "269", "complex_id": "269", "division": "IND", "line": "Queens Blvd", "stop_name": "Northern Blvd", "borough": "Q", "cbd": "false", "daytime_routes": "M R", "structure": "Subway", "gtfs_latitude": "40.752885", "gtfs_longitude": "-73.906006", "north_direction_label": "Outbound", "south_direction_label": "Manhattan", "ada": "1", "ada_northbound": "1", "ada_southbound": "1", "ada_notes": null, ":@computed_region_yamh_8v7k": "196", ":@computed_region_wbg7_3whc": "846", ":@computed_region_kjdx_g34t": "2137" }, "geometry": { "type": "Point", "coordinates": [ -73.906006, 40.752885 ] } },
{ "type": "Feature", "properties": { ":id": "row-e32r.8vve_hntd", ":version": "rv-kign_9i24.3xan", ":created_at": "2026-07-23T04:15:36.576Z", ":updated_at": "2026-07-23T04:15:55.744Z", "gtfs_stop_id": "G18", "station_id": "270", "complex_id": "270", "division": "IND", "line": "Queens Blvd", "stop_name": "46 St", "borough": "Q", "cbd": "false", "daytime_routes": "M R", "structure": "Subway", "gtfs_latitude": "40.756312", "gtfs_longitude": "-73.913333", "north_direction_label": "Outbound", "south_direction_label": "Manhattan", "ada": "0", "ada_northbound": "0", "ada_southbound": "0", "ada_notes": null, ":@computed_region_yamh_8v7k": "196", ":@computed_region_wbg7_3whc": "875", ":@computed_region_kjdx_g34t": "2137" }, "geometry": { "type": "Point", "coordinates": [ -73.913333, 40.756312 ] } },
{ "type": "Feature", "properties": { ":id": "row-afsq~srmb_a9p6", ":version": "rv-euee-pdq2.6g9x", ":created_at": "2026-07-23T04:15:36.576Z", ":updated_at": "2026-07-23T04:15:55.744Z", "gtfs_stop_id": "G30", "station_id": "286", "complex_id": "286", "division": "IND", "line": "Crosstown", "stop_name": "Broadway", "borough": "Bk", "cbd": "false", "daytime_routes": "G", "structure": "Subway", "gtfs_latitude": "40.706092", "gtfs_longitude": "-73.950308", "north_direction_label": "Queens", "south_direction_label": "Southbound", "ada": "0", "ada_northbound": "0", "ada_southbound": "0", "ada_notes": null, ":@computed_region_yamh_8v7k": "894", ":@computed_region_wbg7_3whc": "884", ":@computed_region_kjdx_g34t": "2090" }, "geometry": { "type": "Point", "coordinates": [ -73.950308, 40.706092 ] } },
{ "type": "Feature", "properties": { ":id": "row-r5jj-y5hb_veus", ":version": "rv-n5bg~jwxt.wi9e", ":created_at": "2026-07-23T04:15:36.576Z", ":updated_at": "2026-07-23T04:15:55.744Z", "gtfs_stop_id": "G31", "station_id": "287", "complex_id": "287", "division": "IND", "line": "Crosstown", "stop_name": "Flushing Av", "borough": "Bk", "cbd": "false", "daytime_routes": "G", "structure": "Subway", "gtfs_latitude": "40.700377", "gtfs_longitude": "-73.950234", "north_direction_label": "Queens", "south_direction_label": "Southbound", "ada": "0", "ada_northbound": "0", "ada_southbound": "0", "ada_notes": null, ":@computed_region_yamh_8v7k": "894", ":@computed_region_wbg7_3whc": "884", ":@computed_region_kjdx_g34t": "2090" }, "geometry": { "type": "Point", "coordinates": [ -73.950234, 40.700377 ] } },
{ "type": "Feature", "properties": { ":id": "row-idwi-3zzx_tf6i", ":version": "rv-zhxz.e2xr-vgya", ":created_at": "2026-07-23T04:15:36.576Z", ":updated_at": "2026-07-23T04:15:55.744Z", "gtfs_stop_id": "G32", "station_id": "288", "complex_id": "288", "division": "IND", "line": "Crosstown", "stop_name": "Myrtle-Willoughby Avs", "borough": "Bk", "cbd": "false", "daytime_routes": "G", "structure": "Subway", "gtfs_latitude": "40.694568", "gtfs_longitude": "-73.949046", "north_direction_label": "Queens", "south_direction_label": "Southbound", "ada": "0", "ada_northbound": "0", "ada_southbound": "0", "ada_notes": null, ":@computed_region_yamh_8v7k": "894", ":@computed_region_wbg7_3whc": "884", ":@computed_region_kjdx_g34t": "2090" }, "geometry": { "type": "Point", "coordinates": [ -73.949046, 40.694568 ] } },
{ "type": "Feature", "properties": { ":id": "row-ahwi.dvvn~9pef", ":version": "rv-5fsa~mrrm_q59v", ":created_at": "2026-07-23T04:15:36.576Z", ":updated_at": "2026-07-23T04:15:55.744Z", "gtfs_stop_id": "G33", "station_id": "289", "complex_id": "289", "division": "IND", "line": "Crosstown", "stop_name": "Bedford-Nostrand Avs", "borough": "Bk", "cbd": "false", "daytime_routes": "G", "structure": "Subway", "gtfs_latitude": "40.689627", "gtfs_longitude": "-73.953522", "north_direction_label": "Queens", "south_direction_label": "Southbound", "ada": "0", "ada_northbound": "0", "ada_southbound": "0", "ada_notes": null, ":@computed_region_yamh_8v7k": "894", ":@computed_region_wbg7_3whc": "883", ":@computed_region_kjdx_g34t": "2090" }, "geometry": { "type": "Point", "coordinates": [ -73.953522, 40.689627 ] } },
{ "type": "Feature", "properties": { ":id": "row-eg5k.ru83_adt4", ":version": "rv-4jrx.p4nw-qp86", ":created_at": "2026-07-23T04:15:36.576Z", ":updated_at": "2026-07-23T04:15:55.744Z", "gtfs_stop_id": "G34", "station_id": "290", "complex_id": "290", "division": "IND", "line": "Crosstown", "stop_name": "Classon Av", "borough": "Bk", "cbd": "false", "daytime_routes": "G", "structure": "Subway", "gtfs_latitude": "40.688873", "gtfs_longitude": "-73.96007", "north_direction_label": "Queens", "south_direction_label": "Southbound", "ada": "0", "ada_northbound": "0", "ada_southbound": "0", "ada_notes": null, ":@computed_region_yamh_8v7k": "894", ":@computed_region_wbg7_3whc": "821", ":@computed_region_kjdx_g34t": "2090" }, "geometry": { "type": "Point", "coordinates": [ -73.96007, 40.688873 ] } },
{ "type": "Feature", "properties": { ":id": "row-vke7.8d5c_crct", ":version": "rv-r4pw.4ggk-649v", ":created_at": "2026-07-23T04:15:36.576Z", ":updated_at": "2026-07-23T04:15:55.744Z", "gtfs_stop_id": "G35", "station_id": "291", "complex_id": "291", "division": "IND", "line": "Crosstown", "stop_name": "Clinton-Washington Avs", "borough": "Bk", "cbd": "false", "daytime_routes": "G", "structure": "Subway", "gtfs_latitude": "40.688089", "gtfs_longitude": "-73.966839", "north_direction_label": "Queens", "south_direction_label": "Southbound", "ada": "0", "ada_northbound": "0", "ada_southbound": "0", "ada_notes": null, ":@computed_region_yamh_8v7k": "894", ":@computed_region_wbg7_3whc": "821", ":@computed_region_kjdx_g34t": "2090" }, "geometry": { "type": "Point", "coordinates": [ -73.966839, 40.688089 ] } },
{ "type": "Feature", "properties": { ":id": "row-236c-z9pf-vca7", ":version": "rv-i827_cbfw-xs7k", ":created_at": "2026-07-23T04:15:36.576Z", ":updated_at": "2026-07-23T04:15:55.744Z", "gtfs_stop_id": "236", "station_id": "339", "complex_id": "339", "division": "IRT", "line": "Eastern Pky", "stop_name": "Bergen St", "borough": "Bk", "cbd": "false", "daytime_routes": "2 3", "structure": "Subway", "gtfs_latitude": "40.680829", "gtfs_longitude": "-73.975098", "north_direction_label": "Manhattan", "south_direction_label": "Outbound", "ada": "0", "ada_northbound": "0", "ada_southbound": "0", "ada_notes": null, ":@computed_region_yamh_8v7k": "894", ":@computed_region_wbg7_3whc": "895", ":@computed_region_kjdx_g34t": "2090" }, "geometry": { "type": "Point", "coordinates": [ -73.975098, 40.680829 ] } },
{ "type": "Feature", "properties": { ":id": "row-zu2p-4cyp~c8di", ":version": "rv-2grm.dizj.5929", ":created_at": "2026-07-23T04:15:36.576Z", ":updated_at": "2026-07-23T04:15:55.744Z", "gtfs_stop_id": "237", "station_id": "340", "complex_id": "340", "division": "IRT", "line": "Eastern Pky", "stop_name": "Grand Army Plaza", "borough": "Bk", "cbd": "false", "daytime_routes": "2 3", "structure": "Subway", "gtfs_latitude": "40.675235", "gtfs_longitude": "-73.971046", "north_direction_label": "Manhattan", "south_direction_label": "Outbound", "ada": "0", "ada_northbound": "0", "ada_southbound": "0", "ada_notes": null, ":@computed_region_yamh_8v7k": "894", ":@computed_region_wbg7_3whc": "821", ":@computed_region_kjdx_g34t": "2090" }, "geometry": { "type": "Point", "coordinates": [ -73.971046, 40.675235 ] } },
{ "type": "Feature", "properties": { ":id": "row-ht72~v7fk.pqx6", ":version": "rv-fb9k.gfjf~sixr", ":created_at": "2026-07-23T04:15:36.576Z", ":updated_at": "2026-07-23T04:15:55.744Z", "gtfs_stop_id": "238", "station_id": "341", "complex_id": "341", "division": "IRT", "line": "Eastern Pky", "stop_name": "Eastern Pkwy-Brooklyn Museum", "borough": "Bk", "cbd": "false", "daytime_routes": "2 3", "structure": "Subway", "gtfs_latitude": "40.671987", "gtfs_longitude": "-73.964375", "north_direction_label": "Manhattan", "south_direction_label": "Outbound", "ada": "1", "ada_northbound": "1", "ada_southbound": "1", "ada_notes": null, ":@computed_region_yamh_8v7k": "894", ":@computed_region_wbg7_3whc": "821", ":@computed_region_kjdx_g34t": "2090" }, "geometry": { "type": "Point", "coordinates": [ -73.964375, 40.671987 ] } },
{ "type": "Feature", "properties": { ":id": "row-94r7.7749~evb8", ":version": "rv-y8tt-wtfn_bs6m", ":created_at": "2026-07-23T04:15:36.576Z", ":updated_at": "2026-07-23T04:15:55.744Z", "gtfs_stop_id": "239", "station_id": "342", "complex_id": "626", "division": "IRT", "line": "Eastern Pky", "stop_name": "Franklin Av-Medgar Evers College", "borough": "Bk", "cbd": "false", "daytime_routes": "2 3 4 5", "structure": "Subway", "gtfs_latitude": "40.670682", "gtfs_longitude": "-73.958131", "north_direction_label": "Manhattan", "south_direction_label": "Outbound", "ada": "0", "ada_northbound": "0", "ada_southbound": "0", "ada_notes": null, ":@computed_region_yamh_8v7k": "894", ":@computed_region_wbg7_3whc": "809", ":@computed_region_kjdx_g34t": "2090" }, "geometry": { "type": "Point", "coordinates": [ -73.958131, 40.670682 ] } },
{ "type": "Feature", "properties": { ":id": "row-evje-vh8j~xmhx", ":version": "rv-7774.e5s6.wfni", ":created_at": "2026-07-23T04:15:36.576Z", ":updated_at": "2026-07-23T04:15:55.744Z", "gtfs_stop_id": "248", "station_id": "343", "complex_id": "343", "division": "IRT", "line": "Eastern Pky", "stop_name": "Nostrand Av", "borough": "Bk", "cbd": "false", "daytime_routes": "3", "structure": "Subway", "gtfs_latitude": "40.669847", "gtfs_longitude": "-73.950466", "north_direction_label": "Manhattan", "south_direction_label": "Outbound", "ada": "0", "ada_northbound": "0", "ada_southbound": "0", "ada_notes": null, ":@computed_region_yamh_8v7k": "894", ":@computed_region_wbg7_3whc": "809", ":@computed_region_kjdx_g34t": "2090" }, "geometry": { "type": "Point", "coordinates": [ -73.950466, 40.669847 ] } },
{ "type": "Feature", "properties": { ":id": "row-kz8a~zak4-2fwp", ":version": "rv-4vsh.gnn2~96ci", ":created_at": "2026-07-23T04:15:36.576Z", ":updated_at": "2026-07-23T04:15:55.744Z", "gtfs_stop_id": "249", "station_id": "344", "complex_id": "344", "division": "IRT", "line": "Eastern Pky", "stop_name": "Kingston Av", "borough": "Bk", "cbd": "false", "daytime_routes": "3", "structure": "Subway", "gtfs_latitude": "40.669399", "gtfs_longitude": "-73.942161", "north_direction_label": "Manhattan", "south_direction_label": "Outbound", "ada": "0", "ada_northbound": "0", "ada_southbound": "0", "ada_notes": null, ":@computed_region_yamh_8v7k": "894", ":@computed_region_wbg7_3whc": "891", ":@computed_region_kjdx_g34t": "2090" }, "geometry": { "type": "Point", "coordinates": [ -73.942161, 40.669399 ] } },
{ "type": "Feature", "properties": { ":id": "row-n7eu_f55c~kzhd", ":version": "rv-39ye-yhsc-uwqm", ":created_at": "2026-07-23T04:15:36.576Z", ":updated_at": "2026-07-23T04:15:55.744Z", "gtfs_stop_id": "250", "station_id": "345", "complex_id": "345", "division": "IRT", "line": "Eastern Pky", "stop_name": "Crown Hts-Utica Av", "borough": "Bk", "cbd": "false", "daytime_routes": "3 4", "structure": "Subway", "gtfs_latitude": "40.668897", "gtfs_longitude": "-73.932942", "north_direction_label": "Manhattan", "south_direction_label": "Outbound", "ada": "1", "ada_northbound": "1", "ada_southbound": "1", "ada_notes": null, ":@computed_region_yamh_8v7k": "894", ":@computed_region_wbg7_3whc": "891", ":@computed_region_kjdx_g34t": "2090" }, "geometry": { "type": "Point", "coordinates": [ -73.932942, 40.668897 ] } },
{ "type": "Feature", "properties": { ":id": "row-xq7w-zksh~dqw8", ":version": "rv-vi4g_uv2h-9x2h", ":created_at": "2026-07-23T04:15:36.576Z", ":updated_at": "2026-07-23T04:15:55.744Z", "gtfs_stop_id": "241", "station_id": "353", "complex_id": "353", "division": "IRT", "line": "Nostrand", "stop_name": "President St-Medgar Evers College", "borough": "Bk", "cbd": "false", "daytime_routes": "2 5", "structure": "Subway", "gtfs_latitude": "40.667883", "gtfs_longitude": "-73.950683", "north_direction_label": "Manhattan", "south_direction_label": "Flatbush", "ada": "0", "ada_northbound": "0", "ada_southbound": "0", "ada_notes": null, ":@computed_region_yamh_8v7k": "894", ":@computed_region_wbg7_3whc": "809", ":@computed_region_kjdx_g34t": "2090" }, "geometry": { "type": "Point", "coordinates": [ -73.950683, 40.667883 ] } },
{ "type": "Feature", "properties": { ":id": "row-aznh~tgcg_d38f", ":version": "rv-mseg.e7yg~xzfb", ":created_at": "2026-07-23T04:15:36.576Z", ":updated_at": "2026-07-23T04:15:55.744Z", "gtfs_stop_id": "706", "station_id": "450", "complex_id": "450", "division": "IRT", "line": "Flushing", "stop_name": "103 St-Corona Plaza", "borough": "Q", "cbd": "false", "daytime_routes": "7", "structure": "Elevated", "gtfs_latitude": "40.749865", "gtfs_longitude": "-73.8627", "north_direction_label": "Outbound", "south_direction_label": "Manhattan", "ada": "0", "ada_northbound": "0", "ada_southbound": "0", "ada_notes": null, ":@computed_region_yamh_8v7k": "196", ":@computed_region_wbg7_3whc": "838", ":@computed_region_kjdx_g34t": "2137" }, "geometry": { "type": "Point", "coordinates": [ -73.8627, 40.749865 ] } },
{ "type": "Feature", "properties": { ":id": "row-csq4.u48d_rdj4", ":version": "rv-rs68-ryda.rshu", ":created_at": "2026-07-23T04:15:36.576Z", ":updated_at": "2026-07-23T04:15:55.744Z", "gtfs_stop_id": "707", "station_id": "451", "complex_id": "451", "division": "IRT", "line": "Flushing", "stop_name": "Junction Blvd", "borough": "Q", "cbd": "false", "daytime_routes": "7", "structure": "Elevated", "gtfs_latitude": "40.749145", "gtfs_longitude": "-73.869527", "north_direction_label": "Outbound", "south_direction_label": "Manhattan", "ada": "1", "ada_northbound": "1", "ada_southbound": "1", "ada_notes": null, ":@computed_region_yamh_8v7k": "196", ":@computed_region_wbg7_3whc": "843", ":@computed_region_kjdx_g34t": "2137" }, "geometry": { "type": "Point", "coordinates": [ -73.869527, 40.749145 ] } },
{ "type": "Feature", "properties": { ":id": "row-cy7m-b86e-sqxg", ":version": "rv-t8u5.q28d.862f", ":created_at": "2026-07-23T04:15:36.576Z", ":updated_at": "2026-07-23T04:15:55.744Z", "gtfs_stop_id": "708", "station_id": "452", "complex_id": "452", "division": "IRT", "line": "Flushing", "stop_name": "90 St-Elmhurst Av", "borough": "Q", "cbd": "false", "daytime_routes": "7", "structure": "Elevated", "gtfs_latitude": "40.748408", "gtfs_longitude": "-73.876613", "north_direction_label": "Outbound", "south_direction_label": "Manhattan", "ada": "0", "ada_northbound": "0", "ada_southbound": "0", "ada_notes": null, ":@computed_region_yamh_8v7k": "196", ":@computed_region_wbg7_3whc": "843", ":@computed_region_kjdx_g34t": "2137" }, "geometry": { "type": "Point", "coordinates": [ -73.876613, 40.748408 ] } },
{ "type": "Feature", "properties": { ":id": "row-xwwb-xgaw.eex6", ":version": "rv-75vn.69f8_wn9e", ":created_at": "2026-07-23T04:15:36.576Z", ":updated_at": "2026-07-23T04:15:55.744Z", "gtfs_stop_id": "709", "station_id": "453", "complex_id": "453", "division": "IRT", "line": "Flushing", "stop_name": "82 St-Jackson Hts", "borough": "Q", "cbd": "false", "daytime_routes": "7", "structure": "Elevated", "gtfs_latitude": "40.747659", "gtfs_longitude": "-73.883697", "north_direction_label": "Outbound", "south_direction_label": "Manhattan", "ada": "0", "ada_northbound": "0", "ada_southbound": "0", "ada_notes": null, ":@computed_region_yamh_8v7k": "196", ":@computed_region_wbg7_3whc": "843", ":@computed_region_kjdx_g34t": "2137" }, "geometry": { "type": "Point", "coordinates": [ -73.883697, 40.747659 ] } },
{ "type": "Feature", "properties": { ":id": "row-s4jn_439h_suzh", ":version": "rv-566r-wqdy-nf3i", ":created_at": "2026-07-23T04:15:36.576Z", ":updated_at": "2026-07-23T04:15:55.744Z", "gtfs_stop_id": "710", "station_id": "454", "complex_id": "616", "division": "IRT", "line": "Flushing", "stop_name": "74 St-Broadway", "borough": "Q", "cbd": "false", "daytime_routes": "7", "structure": "Elevated", "gtfs_latitude": "40.746848", "gtfs_longitude": "-73.891394", "north_direction_label": "Outbound", "south_direction_label": "Manhattan", "ada": "1", "ada_northbound": "1", "ada_southbound": "1", "ada_notes": null, ":@computed_region_yamh_8v7k": "196", ":@computed_region_wbg7_3whc": "843", ":@computed_region_kjdx_g34t": "2137" }, "geometry": { "type": "Point", "coordinates": [ -73.891394, 40.746848 ] } },
{ "type": "Feature", "properties": { ":id": "row-n6hh_ryqu~befh", ":version": "rv-agwu-cwki.m4dk", ":created_at": "2026-07-23T04:15:36.576Z", ":updated_at": "2026-07-23T04:15:55.744Z", "gtfs_stop_id": "711", "station_id": "455", "complex_id": "455", "division": "IRT", "line": "Flushing", "stop_name": "69 St", "borough": "Q", "cbd": "false", "daytime_routes": "7", "structure": "Elevated", "gtfs_latitude": "40.746325", "gtfs_longitude": "-73.896403", "north_direction_label": "Outbound", "south_direction_label": "Manhattan", "ada": "0", "ada_northbound": "0", "ada_southbound": "0", "ada_notes": null, ":@computed_region_yamh_8v7k": "196", ":@computed_region_wbg7_3whc": "846", ":@computed_region_kjdx_g34t": "2137" }, "geometry": { "type": "Point", "coordinates": [ -73.896403, 40.746325 ] } },
{ "type": "Feature", "properties": { ":id": "row-dqhx_edhj~inef", ":version": "rv-hrgt_uqxq_mubz", ":created_at": "2026-07-23T04:15:36.576Z", ":updated_at": "2026-07-23T04:15:55.744Z", "gtfs_stop_id": "712", "station_id": "456", "complex_id": "456", "division": "IRT", "line": "Flushing", "stop_name": "61 St-Woodside", "borough": "Q", "cbd": "false", "daytime_routes": "7", "structure": "Elevated", "gtfs_latitude": "40.74563", "gtfs_longitude": "-73.902984", "north_direction_label": "Outbound", "south_direction_label": "Manhattan", "ada": "1", "ada_northbound": "1", "ada_southbound": "1", "ada_notes": null, ":@computed_region_yamh_8v7k": "196", ":@computed_region_wbg7_3whc": "846", ":@computed_region_kjdx_g34t": "2137" }, "geometry": { "type": "Point", "coordinates": [ -73.902984, 40.74563 ] } }
]
}
